FLOCK 4BE-17            
1 60492U 24149AA  25276.18536890  .00033846  00000+0  11517-2 0  9993
2 60492  97.4030 353.8831 0004746 106.0279 254.1485 15.30341338 62821
NUSAT-50 (NANCY ROMAN)  
1 60493U 24149AB  25276.18429064  .00026501  00000+0  93482-3 0  9990
2 60493  97.4015 353.9327 0005484 106.3000 253.8844 15.29215348 62836
FLOCK 4BE-22            
1 60494U 24149AC  25276.20612072  .00036286  00000+0  12100-2 0  9995
2 60494  97.3984 353.8516 0006398 112.2737 247.9183 15.30971887 62848
FLOCK 4BE-34            
1 60495U 24149AD  25276.47841283  .00032859  00000+0  10652-2 0  9995
2 60495  97.4023 354.6562 0005944 117.6385 242.5461 15.31907004 62906
TYCHE                   
1 60496U 24149AE  25276.58737237  .00010369  00000+0  42059-3 0  9990
2 60496  97.4022 352.4977 0005695 113.2366 246.9472 15.24792345 62773
FLOCK 4BE-32            
1 60497U 24149AF  25276.17303972  .00036044  00000+0  11839-2 0  9990
2 60497  97.3969 353.9692 0005826 110.7364 249.4502 15.31465945 62851
NUSAT-48 (HENRIETTA LE*)
1 60498U 24149AG  25276.18052249  .00025589  00000+0  86533-3 0  9996
2 60498  97.3987 353.7616 0006080 110.9990 249.1902 15.30595286 62836
FLOCK 4BE-30            
1 60499U 24149AH  25276.17884706  .00034764  00000+0  11415-2 0  9998
2 60499  97.4049 354.3798 0005033 111.1767 249.0013 15.31487774 62236
NUSAT-49 (KLARA DAN VO*)
1 60500U 24149AJ  25276.52144054  .00021803  00000+0  74781-3 0  9991
2 60500  97.4012 354.2219 0005717 107.6433 252.5433 15.30169549 62887
FLOCK 4BE-11            
1 60501U 24149AK  25276.20978887  .00037161  00000+0  12089-2 0  9992
2 60501  97.3956 354.0452 0006112 113.2101 246.9785 15.31767328 62861
FLOCK 4BE-33            
1 60502U 24149AL  25276.45511307  .00033992  00000+0  11705-2 0  9992
2 60502  97.3973 353.8009 0006233 120.4372 239.7485 15.29945366 62864
FLOCK 4BE-10            
1 60503U 24149AM  25276.45264482  .00023178  00000+0  78930-3 0  9991
2 60503  97.4024 354.2451 0005133 114.5453 245.6323 15.30392634 62875
YAM-7                   
1 60504U 24149AN  25276.49095686  .00016906  00000+0  63968-3 0  9990
2 60504  97.4040 353.2861 0005068 117.4946 242.6808 15.27001192 62815
FLOCK 4BE-24            
1 60505U 24149AP  25276.20205982  .00034953  00000+0  11275-2 0  9997
2 60505  97.3968 354.2333 0006130 122.7249 237.4584 15.32051202 62877
LUR-1                   
1 60506U 24149AQ  25276.20851256  .00016210  00000+0  64237-3 0  9992
2 60506  97.4012 352.3339 0005707 125.1380 235.0394 15.25467847 62732
TANAGER-4001            
1 60507U 24149AR  25276.23307374  .00019269  00000+0  42736-3 0  9990
2 60507  97.3931   2.2201 0010093 247.0714 112.9469 15.43729901 63391
EAGLEEYE                
1 60508U 24149AS  25276.48180114  .00060412  00000+0  14916-2 0  9993
2 60508  97.4003 357.0215 0004738 114.4021 245.7720 15.40290575 63073
FLOCK 4BE-29            
1 60509U 24149AT  25276.19800876  .00035291  00000+0  11107-2 0  9992
2 60509  97.4049 354.9639 0004535 128.9430 231.2217 15.32846826 62896
2024-149AU              
1 60510U 24149AU  25276.19569706  .00028106  00000+0  92659-3 0  9997
2 60510  97.3982 354.1586 0005439 122.5886 237.5881 15.31401523 62868
FLOCK 4BE-2             
1 60511U 24149AV  25276.21487314  .00038016  00000+0  11692-2 0  9993
2 60511  97.4055 355.2795 0004696 124.9314 235.2370 15.33566062 62917
FLOCK 4BE-13            
1 60512U 24149AW  25276.18893054  .00031175  00000+0  10055-2 0  9993
2 60512  97.3965 354.3674 0005908 109.9686 250.2193 15.32081682 62880
FLOCK 4BE-27            
1 60513U 24149AX  25276.19171932  .00020297  00000+0  73452-3 0  9993
2 60513  97.4065 353.6624 0005548 130.1348 230.0378 15.28432633 62805
FLOCK 4BE-9             
1 60514U 24149AY  25276.21289709  .00031760  00000+0  10500-2 0  9990
2 60514  97.4034 354.4082 0004947 132.3166 227.8495 15.31287388 62862
FLOCK 4BE-8             
1 60515U 24149AZ  25276.20252102  .00083157  00000+0  26000-2 0  9996
2 60515  97.3983 354.1386 0004437 107.8100 252.3626 15.32816517 62860
FLOCK 4BE-6             
1 60516U 24149BA  25276.20840338  .00028650  00000+0  97346-3 0  9990
2 60516  97.4040 354.1429 0005552 133.2420 226.9285 15.30419993 62842
FLOCK 4BE-14            
1 60517U 24149BB  25276.17826621  .00032616  00000+0  10743-2 0  9998
2 60517  97.3960 354.1225 0006793 131.6541 228.5283 15.31389443 62866
FLOCK 4BE-1             
1 60518U 24149BC  25276.19047937  .00032668  00000+0  10529-2 0  9995
2 60518  97.4023 354.7051 0005943 129.7375 230.4391 15.32096153 62888
FLOCK 4BE-28            
1 60519U 24149BD  25276.17895979  .00034170  00000+0  10613-2 0  9995
2 60519  97.3987 354.8320 0006438 130.3171 229.8635 15.33267003 62900
IPERDRONE.0             
1 60520U 24149BE  25276.61628128  .00047880  00000+0  11740-2 0  9990
2 60520  97.4017 357.5475 0005324 104.9145 255.2692 15.40559009 63117
2024-149BF              
1 60521U 24149BF  25276.58890050  .00060363  00000+0  14130-2 0  9999
2 60521  97.4035 357.9804 0005451 117.7718 242.4083 15.41901329 63138
