OBJECT_NAME,OBJECT_ID,EPOCH,MEAN_MOTION,ECCENTRICITY,INCLINATION,RA_OF_ASC_NODE,ARG_OF_PERICENTER,MEAN_ANOMALY,EPHEMERIS_TYPE,CLASSIFICATION_TYPE,NORAD_CAT_ID,ELEMENT_SET_NO,REV_AT_EPOCH,BSTAR,MEAN_MOTION_DOT,MEAN_MOTION_DDOT
FLOCK 4BE-17,2024-149AA,2025-10-03T04:26:55.872960,15.30341338,.00047468,97.4030,353.8831,106.0279,254.1485,0,U,60492,999,6282,.11516759E-2,.33846E-3,0
NUSAT-50 (NANCY ROMAN),2024-149AB,2025-10-03T04:25:22.711296,15.29215348,.00054844,97.4015,353.9327,106.3000,253.8844,0,U,60493,999,6283,.9348249E-3,.26501E-3,0
FLOCK 4BE-22,2024-149AC,2025-10-03T04:56:48.830208,15.30971887,.00063984,97.3984,353.8516,112.2737,247.9183,0,U,60494,999,6284,.12100408E-2,.36286E-3,0
FLOCK 4BE-34,2024-149AD,2025-10-03T11:28:54.868512,15.31907004,.00059445,97.4023,354.6562,117.6385,242.5461,0,U,60495,999,6290,.10652186E-2,.32859E-3,0
TYCHE,2024-149AE,2025-10-03T14:05:48.972768,15.24792345,.00056958,97.4022,352.4977,113.2366,246.9472,0,U,60496,999,6277,.42059338E-3,.10369E-3,0
FLOCK 4BE-32,2024-149AF,2025-10-03T04:09:10.631808,15.31465945,.00058261,97.3969,353.9692,110.7364,249.4502,0,U,60497,999,6285,.11838792E-2,.36044E-3,0
NUSAT-48 (HENRIETTA LEAVITT),2024-149AG,2025-10-03T04:19:57.143136,15.30595286,.00060802,97.3987,353.7616,110.9990,249.1902,0,U,60498,999,6283,.86532627E-3,.25589E-3,0
FLOCK 4BE-30,2024-149AH,2025-10-03T04:17:32.385984,15.31487774,.00050339,97.4049,354.3798,111.1767,249.0013,0,U,60499,999,6223,.11414907E-2,.34764E-3,0
NUSAT-49 (KLARA DAN VON NEUMANN),2024-149AJ,2025-10-03T12:30:52.462656,15.30169549,.00057176,97.4012,354.2219,107.6433,252.5433,0,U,60500,999,6288,.74780642E-3,.21803E-3,0
FLOCK 4BE-11,2024-149AK,2025-10-03T05:02:05.758368,15.31767328,.00061129,97.3956,354.0452,113.2101,246.9785,0,U,60501,999,6286,.12088972E-2,.37161E-3,0
FLOCK 4BE-33,2024-149AL,2025-10-03T10:55:21.769248,15.29945366,.00062339,97.3973,353.8009,120.4372,239.7485,0,U,60502,999,6286,.11705032E-2,.33992E-3,0
FLOCK 4BE-10,2024-149AM,2025-10-03T10:51:48.512448,15.30392634,.00051337,97.4024,354.2451,114.5453,245.6323,0,U,60503,999,6287,.78930082E-3,.23178E-3,0
YAM-7,2024-149AN,2025-10-03T11:46:58.672704,15.27001192,.00050682,97.4040,353.2861,117.4946,242.6808,0,U,60504,999,6281,.63967699E-3,.16906E-3,0
FLOCK 4BE-24,2024-149AP,2025-10-03T04:50:57.968448,15.32051202,.00061309,97.3968,354.2333,122.7249,237.4584,0,U,60505,999,6287,.11275347E-2,.34953E-3,0
LUR-1,2024-149AQ,2025-10-03T05:00:15.485184,15.25467847,.00057075,97.4012,352.3339,125.1380,235.0394,0,U,60506,999,6273,.64236743E-3,.1621E-3,0
TANAGER-4001,2024-149AR,2025-10-03T05:35:37.571136,15.43729901,.00100932,97.3931,2.2201,247.0714,112.9469,0,U,60507,999,6339,.42735549E-3,.19269E-3,0
EAGLEEYE,2024-149AS,2025-10-03T11:33:47.618496,15.40290575,.00047385,97.4003,357.0215,114.4021,245.7720,0,U,60508,999,6307,.14915577E-2,.60412E-3,0
FLOCK 4BE-29,2024-149AT,2025-10-03T04:45:07.956864,15.32846826,.00045357,97.4049,354.9639,128.9430,231.2217,0,U,60509,999,6289,.11107368E-2,.35291E-3,0
2024-149AU,2024-149AU,2025-10-03T04:41:48.225984,15.31401523,.00054391,97.3982,354.1586,122.5886,237.5881,0,U,60510,999,6286,.92659252E-3,.28106E-3,0
FLOCK 4BE-2,2024-149AV,2025-10-03T05:09:25.039296,15.33566062,.00046967,97.4055,355.2795,124.9314,235.2370,0,U,60511,999,6291,.11692075E-2,.38016E-3,0
FLOCK 4BE-13,2024-149AW,2025-10-03T04:32:03.598656,15.32081682,.00059082,97.3965,354.3674,109.9686,250.2193,0,U,60512,999,6288,.10055211E-2,.31175E-3,0
FLOCK 4BE-27,2024-149AX,2025-10-03T04:36:04.549248,15.28432633,.00055487,97.4065,353.6624,130.1348,230.0378,0,U,60513,999,6280,.73451912E-3,.20297E-3,0
FLOCK 4BE-9,2024-149AY,2025-10-03T05:06:34.308576,15.31287388,.00049479,97.4034,354.4082,132.3166,227.8495,0,U,60514,999,6286,.10500138E-2,.3176E-3,0
FLOCK 4BE-8,2024-149AZ,2025-10-03T04:51:37.816128,15.32816517,.00044377,97.3983,354.1386,107.8100,252.3626,0,U,60515,999,6286,.2600021E-2,.83157E-3,0
FLOCK 4BE-6,2024-149BA,2025-10-03T05:00:06.052032,15.30419993,.00055526,97.4040,354.1429,133.2420,226.9285,0,U,60516,999,6284,.97345729E-3,.2865E-3,0
FLOCK 4BE-14,2024-149BB,2025-10-03T04:16:42.200544,15.31389443,.0006793,97.3960,354.1225,131.6541,228.5283,0,U,60517,999,6286,.1074349E-2,.32616E-3,0
FLOCK 4BE-1,2024-149BC,2025-10-03T04:34:17.417568,15.32096153,.00059438,97.4023,354.7051,129.7375,230.4391,0,U,60518,999,6288,.10528568E-2,.32668E-3,0
FLOCK 4BE-28,2024-149BD,2025-10-03T04:17:42.125856,15.33267003,.00064386,97.3987,354.8320,130.3171,229.8635,0,U,60519,999,6290,.10613092E-2,.3417E-3,0
IPERDRONE.0,2024-149BE,2025-10-03T14:47:26.702592,15.40559009,.00053249,97.4017,357.5475,104.9145,255.2692,0,U,60520,999,6311,.11739705E-2,.4788E-3,0
2024-149BF,2024-149BF,2025-10-03T14:08:01.003200,15.41901329,.00054512,97.4035,357.9804,117.7718,242.4083,0,U,60521,999,6313,.141301E-2,.60363E-3,0
